[{"OBJECT_NAME":"STARLINK-35250","OBJECT_ID":"2025-207M","EPOCH":"2026-03-09T18:04:32.435616","MEAN_MOTION":15.05641543,"ECCENTRICITY":0.00012259,"INCLINATION":97.6026,"RA_OF_ASC_NODE":138.767,"ARG_OF_PERICENTER":136.4166,"MEAN_ANOMALY":223.7158,"EPHEMERIS_TYPE":0,"CLASSIFICATION_TYPE":"U","NORAD_CAT_ID":65603,"ELEMENT_SET_NO":999,"REV_AT_EPOCH":2827,"BSTAR":0.00017022586,"MEAN_MOTION_DOT":2.396e-5,"MEAN_MOTION_DDOT":0},{"OBJECT_NAME":"TITAN 4B R\/B","OBJECT_ID":"2000-047B","EPOCH":"2026-03-09T21:29:16.286496","MEAN_MOTION":15.09565128,"ECCENTRICITY":0.00386241,"INCLINATION":67.9901,"RA_OF_ASC_NODE":39.932,"ARG_OF_PERICENTER":35.1583,"MEAN_ANOMALY":325.2103,"EPHEMERIS_TYPE":0,"CLASSIFICATION_TYPE":"U","NORAD_CAT_ID":26474,"ELEMENT_SET_NO":999,"REV_AT_EPOCH":39294,"BSTAR":0.00034805691,"MEAN_MOTION_DOT":5.567e-5,"MEAN_MOTION_DDOT":0}]
